NORAD_CAT_ID,OBJECT_NAME,OBJECT_TYPE,EPOCH,MEAN_MOTION,ECCENTRICITY,INCLINATION,RA_OF_ASC_NODE,ARG_OF_PERICENTER,MEAN_ANOMALY,BSTAR,MEAN_MOTION_DOT,MEAN_MOTION_DDOT,TLE_LINE0,TLE_LINE1,TLE_LINE2,SEMIMAJOR_AXIS,PERIOD,APOGEE,PERIGEE,DECAYED
53539.0,STARLINK-4123,PAYLOAD,2022-12-05 12:32:43,15.088418300000004,0.0002241,53.2202,16.9795,29.397,330.7148,0.00011743,1.581e-05,0.0,0 STARLINK-4123,1 53539U 22101N   22339.52272123  .00001581  00000-0  11743-3 0  9998,2 53539  53.2202  16.9795 0002241  29.3970 330.7148 15.08841830 16491,6917.875,95.437,541.29,538.189,0.0
53539.0,STARLINK-4123,PAYLOAD,2022-12-06 09:12:43,15.08844368,0.000231,53.2207,13.114,34.2172,325.8969,9.6472e-06,-1.35e-06,0.0,0 STARLINK-4123,1 53539U 22101N   22340.38384107 -.00000135  00000-0  96472-5 0  9999,2 53539  53.2207  13.1140 0002310  34.2172 325.8969 15.08844368 16625,6917.8669999999975,95.437,541.33,538.134,0.0
53539.0,STARLINK-4123,PAYLOAD,2022-12-06 18:45:02,15.08841409,0.0002353,53.2198,11.3316,35.7506,324.3643,-5.8457e-05,-1.219e-05,0.0,0 STARLINK-4123,1 53539U 22101N   22340.78128439 -.00001219  00000-0 -58457-4 0  9992,2 53539  53.2198  11.3316 0002353  35.7506 324.3643 15.08841409 16685,6917.876,95.437,541.369,538.113,0.0
53539.0,STARLINK-4123,PAYLOAD,2022-12-07 09:03:31,15.08833865,0.0002451,53.2201,8.6553,33.94,326.1749,-7.6257e-05,-1.502e-05,0.0,0 STARLINK-4123,1 53539U 22101N   22341.37745211 -.00001502  00000-0 -76257-4 0  9994,2 53539  53.2201   8.6553 0002451  33.9400 326.1749 15.08833865 16778,6917.899,95.438,541.46,538.069,0.0
53539.0,STARLINK-4123,PAYLOAD,2022-12-07 13:49:40,15.08850294,0.0002376,53.2202,7.7629,34.8011,325.3137,-0.00023552,-4.036e-05,0.0,0 STARLINK-4123,1 53539U 22101N   22341.57616620 -.00004036  00000-0 -23552-3 0  9991,2 53539  53.2202   7.7629 0002376  34.8011 325.3137 15.08850294 16808,6917.849,95.437,541.3580000000002,538.07,0.0
53539.0,STARLINK-4123,PAYLOAD,2022-12-07 18:35:49,15.08843524,0.0001768,53.2201,6.8713,25.0585,335.0493,3.9677e-05,3.43e-06,0.0,0 STARLINK-4123,1 53539U 22101N   22341.77488142  .00000343  00000-0  39677-4 0  9990,2 53539  53.2201   6.8713 0001768  25.0585 335.0493 15.08843524 16837,6917.87,95.437,540.9580000000002,538.512,0.0
53539.0,STARLINK-4123,PAYLOAD,2022-12-08 02:32:48,15.08804911,0.000257,53.2212,5.3861,21.9908,338.1194,-0.00024773,-4.225e-05,0.0,0 STARLINK-4123,1 53539U 22101N   22342.10611458 -.00004225  00000-0 -24773-3 0  9991,2 53539  53.2212   5.3861 0002570  21.9908 338.1194 15.08804911 16887,6917.988,95.44,541.631,538.075,0.0
53539.0,STARLINK-4123,PAYLOAD,2022-12-08 10:29:40,15.08850422,0.0002282,53.2208,3.8987,36.7001,323.4147,1.3532e-05,-7.3e-07,0.0,0 STARLINK-4123,1 53539U 22101N   22342.43727906 -.00000073  00000-0  13532-4 0  9991,2 53539  53.2208   3.8987 0002282  36.7001 323.4147 15.08850422 16931,6917.849,95.437,541.2919999999998,538.135,0.0
53539.0,STARLINK-4123,PAYLOAD,2022-12-08 18:26:35,15.08841254,0.0001898,53.2202,2.4117,309.5335,50.5489,0.00017793,2.545e-05,0.0,0 STARLINK-4123,1 53539U 22101N   22342.76846777  .00002545  00000-0  17793-3 0  9992,2 53539  53.2202   2.4117 0001898 309.5335  50.5489 15.08841254 16983,6917.877,95.437,541.055,538.429,0.0
53539.0,STARLINK-4123,PAYLOAD,2022-12-09 05:34:07,15.08988046,0.0001482,53.2199,0.3296,13.1862,346.9168,0.0013321,0.00021062,0.0,0 STARLINK-4123,1 53539U 22101N   22343.23203406  .00021062  00000-0  13321-2 0  9998,2 53539  53.2199   0.3296 0001482  13.1862 346.9168 15.08988046 17051,6917.428000000001,95.428,540.318,538.268,0.0
53539.0,STARLINK-4123,PAYLOAD,2022-12-09 18:17:25,15.0884679,0.0004241,53.2192,357.9522,281.6716,78.38,-0.0015045,-0.00024163,0.0,0 STARLINK-4123,1 53539U 22101N   22343.76209704 -.00024163  00000-0 -15045-2 0  9995,2 53539  53.2192 357.9522 0004241 281.6716  78.3800 15.08846790 17130,6917.86,95.437,542.658,536.7909999999998,0.0
53539.0,STARLINK-4123,PAYLOAD,2022-12-10 08:35:53,15.08831538,0.0002227,53.2209,355.2738,31.1452,328.9672,-3.6217e-05,-8.65e-06,0.0,0 STARLINK-4123,1 53539U 22101N   22344.35825655 -.00000865  00000-0 -36217-4 0  9999,2 53539  53.2209 355.2738 0002227  31.1452 328.9672 15.08831538 17221,6917.906,95.438,541.312,538.231,0.0
53539.0,STARLINK-4123,PAYLOAD,2022-12-11 03:40:30,15.08799779,0.0001813,53.2206,351.7043,314.6534,45.431,0.00059306,9.153e-05,0.0,0 STARLINK-4123,1 53539U 22101N   22345.15313551  .00009153  00000-0  59306-3 0  9995,2 53539  53.2206 351.7043 0001813 314.6534  45.4310 15.08799779 17341,6918.003000000002,95.44,541.123,538.614,0.0
53539.0,STARLINK-4123,PAYLOAD,2022-12-11 10:02:02,15.08848062,0.0001801,53.2207,350.5145,36.4855,323.626,-6.5442e-05,-1.33e-05,0.0,0 STARLINK-4123,1 53539U 22101N   22345.41808765 -.00001330  00000-0 -65442-4 0  9990,2 53539  53.2207 350.5145 0001801  36.4855 323.6260 15.08848062 17383,6917.856,95.437,540.967,538.475,0.0
53539.0,STARLINK-4123,PAYLOAD,2022-12-12 00:20:31,15.08804643,0.0001606,53.2205,347.839,344.0524,16.0417,0.00073124,0.00011358,0.0,0 STARLINK-4123,1 53539U 22101N   22346.01425524  .00011358  00000-0  73124-3 0  9999,2 53539  53.2205 347.8390 0001606 344.0524  16.0417 15.08804643 17470,6917.988,95.44,540.964,538.742,0.0
53539.0,STARLINK-4123,PAYLOAD,2022-12-12 06:42:03,15.08841534,0.0002142,53.2204,346.6497,31.5151,328.5969,0.00016456,2.332e-05,0.0,0 STARLINK-4123,1 53539U 22101N   22346.27921144  .00002332  00000-0  16456-3 0  9993,2 53539  53.2204 346.6497 0002142  31.5151 328.5969 15.08841534 17512,6917.876,95.437,541.2230000000002,538.259,0.0
53539.0,STARLINK-4123,PAYLOAD,2022-12-12 11:28:13,15.08835026,0.0002441,53.2204,345.7587,29.8256,330.2875,0.00010891,1.445e-05,0.0,0 STARLINK-4123,1 53539U 22101N   22346.47793806  .00001445  00000-0  10891-3 0  9998,2 53539  53.2204 345.7587 0002441  29.8256 330.2875 15.08835026 17548,6917.896,95.438,541.4490000000002,538.072,0.0
53539.0,STARLINK-4123,PAYLOAD,2022-12-13 09:43:37,15.08839676,0.0002321,53.2202,341.595,28.7757,331.3363,5.1167e-05,5.26e-06,0.0,0 STARLINK-4123,1 53539U 22101N   22347.40529634  .00000526  00000-0  51167-4 0  9999,2 53539  53.2202 341.5950 0002321  28.7757 331.3363 15.08839676 17689,6917.880999999999,95.438,541.352,538.141,0.0
53539.0,STARLINK-4123,PAYLOAD,2022-12-14 00:02:05,15.08853091,0.0002195,53.221,338.9186,24.0463,336.0631,-0.00012722,-2.313e-05,0.0,0 STARLINK-4123,1 53539U 22101N   22348.00145454 -.00002313  00000-0 -12722-3 0  9991,2 53539  53.2210 338.9186 0002195  24.0463 336.0631 15.08853091 17778,6917.84,95.437,541.224,538.187,0.0
53539.0,STARLINK-4123,PAYLOAD,2022-12-14 09:34:24,15.08839484,0.0002577,53.2194,337.1369,28.1599,331.9532,1.2312e-05,-9.3e-07,0.0,0 STARLINK-4123,1 53539U 22101N   22348.39889570 -.00000093  00000-0  12312-4 0  9995,2 53539  53.2194 337.1369 0002577  28.1599 331.9532 15.08839484 17833,6917.882,95.438,541.53,537.964,0.0
53539.0,STARLINK-4123,PAYLOAD,2022-12-14 15:55:57,15.08838095,0.0002138,53.2193,335.9473,31.0143,329.0975,-4.018e-05,-9.28e-06,0.0,0 STARLINK-4123,1 53539U 22101N   22348.66385877 -.00000928  00000-0 -40180-4 0  9998,2 53539  53.2193 335.9473 0002138  31.0143 329.0975 15.08838095 17875,6917.886,95.438,541.23,538.2719999999998,0.0
53539.0,STARLINK-4123,PAYLOAD,2022-12-14 23:52:53,15.08830383,0.0002385,53.2193,334.4609,30.4853,329.6278,-2.0851e-05,-6.2e-06,0.0,0 STARLINK-4123,1 53539U 22101N   22348.99506552 -.00000620  00000-0 -20851-4 0  9991,2 53539  53.2193 334.4609 0002385  30.4853 329.6278 15.08830383 17925,6917.91,95.438,541.425,538.125,0.0
53539.0,STARLINK-4123,PAYLOAD,2022-12-15 09:25:12,15.08836421,0.0002465,53.22,332.6763,31.9079,328.2062,9.162e-05,1.17e-05,0.0,0 STARLINK-4123,1 53539U 22101N   22349.39250093  .00001170  00000-0  91620-4 0  9993,2 53539  53.2200 332.6763 0002465  31.9079 328.2062 15.08836421 17981,6917.891,95.438,541.462,538.0509999999998,0.0
53539.0,STARLINK-4123,PAYLOAD,2022-12-15 11:00:35,15.08839195,0.0002482,53.22,332.3786,32.9688,327.1458,9.963e-05,1.298e-05,0.0,0 STARLINK-4123,1 53539U 22101N   22349.45873917  .00001298  00000-0  99630-4 0  9996,2 53539  53.2200 332.3786 0002482  32.9688 327.1458 15.08839195 17998,6917.8830000000025,95.438,541.465,538.031,0.0
53539.0,STARLINK-4123,PAYLOAD,2022-12-15 15:46:44,15.08841413,0.0002491,53.22,331.4866,33.2447,326.8702,8.2313e-05,1.022e-05,0.0,0 STARLINK-4123,1 53539U 22101N   22349.65745848  .00001022  00000-0  82313-4 0  9994,2 53539  53.2200 331.4866 0002491  33.2447 326.8702 15.08841413 18023,6917.876,95.437,541.464,538.018,0.0
53539.0,STARLINK-4123,PAYLOAD,2022-12-16 09:15:59,15.08839941,0.0002393,53.2207,328.2153,26.86,333.2516,1.5296e-05,-4.5e-07,0.0,0 STARLINK-4123,1 53539U 22101N   22350.38610045 -.00000045  00000-0  15296-4 0  9997,2 53539  53.2207 328.2153 0002393  26.8600 333.2516 15.08839941 18133,6917.880999999999,95.438,541.401,538.09,0.0
53539.0,STARLINK-4123,PAYLOAD,2022-12-17 02:45:13,15.08837503,0.0002547,53.2208,324.9444,31.2635,328.8509,0.00010047,1.311e-05,0.0,0 STARLINK-4123,1 53539U 22101N   22351.11474156  .00001311  00000-0  10047-3 0  9994,2 53539  53.2208 324.9444 0002547  31.2635 328.8509 15.08837503 18245,6917.888000000001,95.438,541.515,537.991,0.0
53539.0,STARLINK-4123,PAYLOAD,2022-12-17 07:31:23,15.08836181,0.0002407,53.2209,324.0529,30.5519,329.5613,3.6613e-05,2.94e-06,0.0,0 STARLINK-4123,1 53539U 22101N   22351.31346461  .00000294  00000-0  36613-4 0  9990,2 53539  53.2209 324.0529 0002407  30.5519 329.5613 15.08836181 18277,6917.892,95.438,541.422,538.092,0.0
53539.0,STARLINK-4123,PAYLOAD,2022-12-18 07:22:09,15.08852448,0.0002555,53.2207,319.5929,31.9983,328.1164,0.00018346,2.634e-05,0.0,0 STARLINK-4123,1 53539U 22101N   22352.30704985  .00002634  00000-0  18346-3 0  9991,2 53539  53.2207 319.5929 0002555  31.9983 328.1164 15.08852448 18429,6917.842,95.437,541.475,537.94,0.0
